{"type": "FeatureCollection", "features": [ {"type": "Feature", "properties": {"norad_id": 66469, "name": "STARLINK-35451", "group": "last-30-days", "lat": -41.49594323613016, "lon": -15.290716954149875, "alt_km": 417.75421525824913, "timestamp": "2025-12-08T23:34:02.738960+00:00", "meta": {"OBJECT_NAME": "STARLINK-35451", "OBJECT_ID": "2025-262P", "EPOCH": "2025-12-08T14:00:01.999872", "MEAN_MOTION": 15.50676947, "ECCENTRICITY": 0.00012353, "INCLINATION": 43.0003, "RA_OF_ASC_NODE": 95.3671, "ARG_OF_PERICENTER": 283.4286, "MEAN_ANOMALY": 265.1099, "EPHEMERIS_TYPE": 0, "CLASSIFICATION_TYPE": "U", "NORAD_CAT_ID": 66469, "ELEMENT_SET_NO": 999, "REV_AT_EPOCH": 497, "BSTAR": -0.0032804237, "MEAN_MOTION_DOT": -0.00188874, "MEAN_MOTION_DDOT": 0}, "tle": {"line1": "1 66469U 25262P   25342.58335648 -.00188874  00000+0 -32804-2 0  9992", "line2": "2 66469  43.0003  95.3671 0001235 283.4286 265.1099 15.50676947  4970"}}, "geometry": {"type": "Point", "coordinates": [-15.290716954149875, -41.49594323613016]}}, {"type": "Feature", "properties": {"norad_id": 66470, "name": "STARLINK-35655", "group": "last-30-days", "lat": -40.56581611021916, "lon": -20.222055061526152, "alt_km": 417.45492870488033, "timestamp": "2025-12-08T23:34:02.738970+00:00", "meta": {"OBJECT_NAME": "STARLINK-35655", "OBJECT_ID": "2025-262Q", "EPOCH": "2025-12-08T14:00:01.999872", "MEAN_MOTION": 15.50580164, "ECCENTRICITY": 0.00015669, "INCLINATION": 43.0004, "RA_OF_ASC_NODE": 95.3782, "ARG_OF_PERICENTER": 274.3487, "MEAN_ANOMALY": 270.403, "EPHEMERIS_TYPE": 0, "CLASSIFICATION_TYPE": "U", "NORAD_CAT_ID": 66470, "ELEMENT_SET_NO": 999, "REV_AT_EPOCH": 497, "BSTAR": -0.00095597896, "MEAN_MOTION_DOT": -0.00056027, "MEAN_MOTION_DDOT": 0}, "tle": {"line1": "1 66470U 25262Q   25342.58335648 -.00056027  00000+0 -95598-3 0  9998", "line2": "2 66470  43.0004  95.3782 0001566 274.3487 270.4030 15.50580164  4974"}}, "geometry": {"type": "Point", "coordinates": [-20.222055061526152, -40.56581611021916]}}, {"type": "Feature", "properties": {"norad_id": 66471, "name": "STARLINK-35569", "group": "last-30-days", "lat": -41.059020070078894, "lon": -17.7647874511639, "alt_km": 417.5768151877128, "timestamp": "2025-12-08T23:34:02.738981+00:00", "meta": {"OBJECT_NAME": "STARLINK-35569", "OBJECT_ID": "2025-262R", "EPOCH": "2025-12-08T14:00:01.999872", "MEAN_MOTION": 15.50607639, "ECCENTRICITY": 0.00013008, "INCLINATION": 43.0003, "RA_OF_ASC_NODE": 95.3722, "ARG_OF_PERICENTER": 268.0354, "MEAN_ANOMALY": 278.6208, "EPHEMERIS_TYPE": 0, "CLASSIFICATION_TYPE": "U", "NORAD_CAT_ID": 66471, "ELEMENT_SET_NO": 999, "REV_AT_EPOCH": 497, "BSTAR": -0.0014294567, "MEAN_MOTION_DOT": -0.00083397, "MEAN_MOTION_DDOT": 0}, "tle": {"line1": "1 66471U 25262R   25342.58335648 -.00083397  00000+0 -14295-2 0  9993", "line2": "2 66471  43.0003  95.3722 0001300 268.0354 278.6208 15.50607639  4971"}}, "geometry": {"type": "Point", "coordinates": [-17.7647874511639, -41.059020070078894]}}, {"type": "Feature", "properties": {"norad_id": 66472, "name": "STARLINK-35567", "group": "last-30-days", "lat": -41.87704800996625, "lon": -12.79853362650133, "alt_km": 417.3951588659611, "timestamp": "2025-12-08T23:34:02.738991+00:00", "meta": {"OBJECT_NAME": "STARLINK-35567", "OBJECT_ID": "2025-262S", "EPOCH": "2025-12-08T14:00:01.999872", "MEAN_MOTION": 15.50552458, "ECCENTRICITY": 0.00015452, "INCLINATION": 43.0004, "RA_OF_ASC_NODE": 95.3624, "ARG_OF_PERICENTER": 273.7924, "MEAN_ANOMALY": 276.7078, "EPHEMERIS_TYPE": 0, "CLASSIFICATION_TYPE": "U", "NORAD_CAT_ID": 66472, "ELEMENT_SET_NO": 999, "REV_AT_EPOCH": 497, "BSTAR": 0.0003378568, "MEAN_MOTION_DOT": 0.00019509, "MEAN_MOTION_DDOT": 0}, "tle": {"line1": "1 66472U 25262S   25342.58335648  .00019509  00000+0  33786-3 0  9993", "line2": "2 66472  43.0004  95.3624 0001545 273.7924 276.7078 15.50552458  4973"}}, "geometry": {"type": "Point", "coordinates": [-12.79853362650133, -41.87704800996625]}}, {"type": "Feature", "properties": {"norad_id": 66473, "name": "STARLINK-35568", "group": "last-30-days", "lat": -42.20563481473515, "lon": -10.259819449237543, "alt_km": 417.53113493342516, "timestamp": "2025-12-08T23:34:02.739001+00:00", "meta": {"OBJECT_NAME": "STARLINK-35568", "OBJECT_ID": "2025-262T", "EPOCH": "2025-12-08T14:00:01.999872", "MEAN_MOTION": 15.50586035, "ECCENTRICITY": 0.00015019, "INCLINATION": 43.0005, "RA_OF_ASC_NODE": 95.3581, "ARG_OF_PERICENTER": 273.7075, "MEAN_ANOMALY": 278.7165, "EPHEMERIS_TYPE": 0, "CLASSIFICATION_TYPE": "U", "NORAD_CAT_ID": 66473, "ELEMENT_SET_NO": 999, "REV_AT_EPOCH": 497, "BSTAR": -0.0012364443, "MEAN_MOTION_DOT": -0.00072231, "MEAN_MOTION_DDOT": 0}, "tle": {"line1": "1 66473U 25262T   25342.58335648 -.00072231  00000+0 -12364-2 0  9995", "line2": "2 66473  43.0005  95.3581 0001501 273.7075 278.7165 15.50586035  4973"}}, "geometry": {"type": "Point", "coordinates": [-10.259819449237543, -42.20563481473515]}}, {"type": "Feature", "properties": {"norad_id": 66474, "name": "STARLINK-35620", "group": "last-30-days", "lat": -42.4773642260748, "lon": -7.694156163928989, "alt_km": 417.49784576701404, "timestamp": "2025-12-08T23:34:02.739011+00:00", "meta": {"OBJECT_NAME": "STARLINK-35620", "OBJECT_ID": "2025-262U", "EPOCH": "2025-12-08T14:00:01.999872", "MEAN_MOTION": 15.50590999, "ECCENTRICITY": 0.00015147, "INCLINATION": 43.0001, "RA_OF_ASC_NODE": 95.3527, "ARG_OF_PERICENTER": 266.4774, "MEAN_ANOMALY": 287.8626, "EPHEMERIS_TYPE": 0, "CLASSIFICATION_TYPE": "U", "NORAD_CAT_ID": 66474, "ELEMENT_SET_NO": 999, "REV_AT_EPOCH": 497, "BSTAR": -0.0013312326, "MEAN_MOTION_DOT": -0.00077702, "MEAN_MOTION_DDOT": 0}, "tle": {"line1": "1 66474U 25262U   25342.58335648 -.00077702  00000+0 -13312-2 0  9998", "line2": "2 66474  43.0001  95.3527 0001514 266.4774 287.8626 15.50590999  4976"}}, "geometry": {"type": "Point", "coordinates": [-7.694156163928989, -42.4773642260748]}}, {"type": "Feature", "properties": {"norad_id": 66475, "name": "STARLINK-35538", "group": "last-30-days", "lat": -42.69142828865264, "lon": -5.113866447546053, "alt_km": 417.5236286470963, "timestamp": "2025-12-08T23:34:02.739021+00:00", "meta": {"OBJECT_NAME": "STARLINK-35538", "OBJECT_ID": "2025-262V", "EPOCH": "2025-12-08T14:00:01.999872", "MEAN_MOTION": 15.50612542, "ECCENTRICITY": 0.00014722, "INCLINATION": 43.0004, "RA_OF_ASC_NODE": 95.348, "ARG_OF_PERICENTER": 273.1779, "MEAN_ANOMALY": 283.0607, "EPHEMERIS_TYPE": 0, "CLASSIFICATION_TYPE": "U", "NORAD_CAT_ID": 66475, "ELEMENT_SET_NO": 999, "REV_AT_EPOCH": 497, "BSTAR": -0.0016251969, "MEAN_MOTION_DOT": -0.00094653, "MEAN_MOTION_DDOT": 0}, "tle": {"line1": "1 66475U 25262V   25342.58335648 -.00094653  00000+0 -16252-2 0  9999", "line2": "2 66475  43.0004  95.3480 0001472 273.1779 283.0607 15.50612542  4977"}}, "geometry": {"type": "Point", "coordinates": [-5.113866447546053, -42.69142828865264]}}, {"type": "Feature", "properties": {"norad_id": 66476, "name": "STARLINK-35372", "group": "last-30-days", "lat": -42.847044214957045, "lon": -2.5093225565728976, "alt_km": 417.5602215907302, "timestamp": "2025-12-08T23:34:02.739031+00:00", "meta": {"OBJECT_NAME": "STARLINK-35372", "OBJECT_ID": "2025-262W", "EPOCH": "2025-12-08T14:00:01.999872", "MEAN_MOTION": 15.50625843, "ECCENTRICITY": 0.00014288, "INCLINATION": 43.0003, "RA_OF_ASC_NODE": 95.343, "ARG_OF_PERICENTER": 272.9093, "MEAN_ANOMALY": 285.2467, "EPHEMERIS_TYPE": 0, "CLASSIFICATION_TYPE": "U", "NORAD_CAT_ID": 66476, "ELEMENT_SET_NO": 999, "REV_AT_EPOCH": 486, "BSTAR": -0.0019902383, "MEAN_MOTION_DOT": -0.00115584, "MEAN_MOTION_DDOT": 0}, "tle": {"line1": "1 66476U 25262W   25342.58335648 -.00115584  00000+0 -19902-2 0  9992", "line2": "2 66476  43.0003  95.3430 0001428 272.9093 285.2467 15.50625843  4863"}}, "geometry": {"type": "Point", "coordinates": [-2.5093225565728976, -42.847044214957045]}}, {"type": "Feature", "properties": {"norad_id": 66477, "name": "STARLINK-35354", "group": "last-30-days", "lat": -42.979172327196494, "lon": 2.6042026297172547, "alt_km": 417.62685599732686, "timestamp": "2025-12-08T23:34:02.739045+00:00", "meta": {"OBJECT_NAME": "STARLINK-35354", "OBJECT_ID": "2025-262X", "EPOCH": "2025-12-08T14:00:01.999872", "MEAN_MOTION": 15.50630292, "ECCENTRICITY": 0.00011177, "INCLINATION": 43.0003, "RA_OF_ASC_NODE": 95.3328, "ARG_OF_PERICENTER": 250.525, "MEAN_ANOMALY": 311.3381, "EPHEMERIS_TYPE": 0, "CLASSIFICATION_TYPE": "U", "NORAD_CAT_ID": 66477, "ELEMENT_SET_NO": 999, "REV_AT_EPOCH": 497, "BSTAR": -0.00078579797, "MEAN_MOTION_DOT": -0.00046252, "MEAN_MOTION_DDOT": 0}, "tle": {"line1": "1 66477U 25262X   25342.58335648 -.00046252  00000+0 -78580-3 0  9996", "line2": "2 66477  43.0003  95.3328 0001117 250.5250 311.3381 15.50630292  4974"}}, "geometry": {"type": "Point", "coordinates": [2.6042026297172547, -42.979172327196494]}}, {"type": "Feature", "properties": {"norad_id": 66478, "name": "STARLINK-35283", "group": "last-30-days", "lat": -42.95647181037802, "lon": 5.313186196513128, "alt_km": 417.6271338443494, "timestamp": "2025-12-08T23:34:02.739055+00:00", "meta": {"OBJECT_NAME": "STARLINK-35283", "OBJECT_ID": "2025-262Y", "EPOCH": "2025-12-08T14:00:01.999872", "MEAN_MOTION": 15.50632484, "ECCENTRICITY": 0.00013195, "INCLINATION": 43.0003, "RA_OF_ASC_NODE": 95.3277, "ARG_OF_PERICENTER": 270.1167, "MEAN_ANOMALY": 293.7825, "EPHEMERIS_TYPE": 0, "CLASSIFICATION_TYPE": "U", "NORAD_CAT_ID": 66478, "ELEMENT_SET_NO": 999, "REV_AT_EPOCH": 497, "BSTAR": -0.0021578606, "MEAN_MOTION_DOT": -0.00125167, "MEAN_MOTION_DDOT": 0}, "tle": {"line1": "1 66478U 25262Y   25342.58335648 -.00125167  00000+0 -21579-2 0  9995", "line2": "2 66478  43.0003  95.3277 0001319 270.1167 293.7825 15.50632484  4978"}}, "geometry": {"type": "Point", "coordinates": [5.313186196513128, -42.95647181037802]}}]}